NORAD_CAT_ID,OBJECT_NAME,OBJECT_TYPE,EPOCH,MEAN_MOTION,ECCENTRICITY,INCLINATION,RA_OF_ASC_NODE,ARG_OF_PERICENTER,MEAN_ANOMALY,BSTAR,MEAN_MOTION_DOT,MEAN_MOTION_DDOT,TLE_LINE0,TLE_LINE1,TLE_LINE2,SEMIMAJOR_AXIS,PERIOD,APOGEE,PERIGEE,DECAYED
56458.0,STARLINK-6050,PAYLOAD,2024-07-18 10:44:33,14.98319666,0.0003482,69.9982,215.4249,266.3834,93.6927,4.1388e-05,4.01e-06,0.0,0 STARLINK-6050,1 56458U 23064L   24200.44760975  .00000401  00000-0  41388-4 0  9996,2 56458  69.9982 215.4249 0003482 266.3834  93.6927 14.98319666 65481,6950.225,96.108,574.51,569.67,0.0
56458.0,STARLINK-6050,PAYLOAD,2024-07-18 18:45:13,14.98322589,0.0003495,69.9982,214.583,266.338,93.7379,5.4939e-05,5.62e-06,0.0,0 STARLINK-6050,1 56458U 23064L   24200.78140955  .00000562  00000-0  54939-4 0  9997,2 56458  69.9982 214.5830 0003495 266.3380  93.7379 14.98322589 65533,6950.216,96.107,574.51,569.652,0.0
56458.0,STARLINK-6050,PAYLOAD,2024-07-19 04:22:02,14.983268,0.000353,69.9981,213.5728,266.3389,93.7367,5.3658e-05,5.47e-06,0.0,0 STARLINK-6050,1 56458U 23064L   24201.18196844  .00000547  00000-0  53658-4 0  9990,2 56458  69.9981 213.5728 0003530 266.3389  93.7367 14.98326800 65959,6950.203,96.107,574.521,569.614,0.0
56458.0,STARLINK-6050,PAYLOAD,2024-07-19 10:46:34,14.98328775,0.0003523,69.9982,212.8996,266.3232,93.7525,7.3157e-05,7.8e-06,0.0,0 STARLINK-6050,1 56458U 23064L   24201.44900731  .00000780  00000-0  73157-4 0  9992,2 56458  69.9982 212.8996 0003523 266.3232  93.7525 14.98328775 65632,6950.197,96.107,574.51,569.613,0.0
56458.0,STARLINK-6050,PAYLOAD,2024-07-20 04:24:02,14.98329067,0.0003523,69.9984,211.048,266.3072,93.7684,0.00010166,1.12e-05,0.0,0 STARLINK-6050,1 56458U 23064L   24202.18336688  .00001120  00000-0  10166-3 0  9997,2 56458  69.9984 211.0480 0003523 266.3072  93.7684 14.98329067 66109,6950.196,96.107,574.509,569.612,0.0
56458.0,STARLINK-6050,PAYLOAD,2024-07-20 10:48:34,14.98331901,0.0003505,69.9985,210.3746,266.2582,93.8177,0.00012502,1.399e-05,0.0,0 STARLINK-6050,1 56458U 23064L   24202.45040453  .00001399  00000-0  12502-3 0  9993,2 56458  69.9985 210.3746 0003505 266.2582  93.8177 14.98331901 65783,6950.187,96.107,574.488,569.616,0.0
56458.0,STARLINK-6050,PAYLOAD,2024-07-21 04:26:04,14.98329591,0.0003415,69.9989,208.5231,266.2738,93.8031,7.4494e-06,-4e-08,0.0,0 STARLINK-6050,1 56458U 23064L   24203.18476935 -.00000004  00000-0  74494-5 0  9995,2 56458  69.9989 208.5231 0003415 266.2738  93.8031 14.98329591 66252,6950.194,96.107,574.433,569.686,0.0
56458.0,STARLINK-6050,PAYLOAD,2024-07-21 10:50:36,14.98329538,0.0003374,69.9991,207.8502,265.5694,94.5079,1.823e-05,1.24e-06,0.0,0 STARLINK-6050,1 56458U 23064L   24203.45180917  .00000124  00000-0  18230-4 0  9994,2 56458  69.9991 207.8502 0003374 265.5694  94.5079 14.98329538 65930,6950.194,96.107,574.404,569.714,0.0
56458.0,STARLINK-6050,PAYLOAD,2024-07-22 04:28:04,14.98330792,0.000331,69.9994,205.9992,263.8388,96.2394,-6.7351e-06,-1.73e-06,0.0,0 STARLINK-6050,1 56458U 23064L   24204.18616868 -.00000173  00000-0 -67351-5 0  9999,2 56458  69.9994 205.9992 0003310 263.8388  96.2394 14.98330792 66402,6950.19,96.107,574.356,569.755,0.0
56458.0,STARLINK-6050,PAYLOAD,2024-07-22 10:52:37,14.98330806,0.0003318,69.9995,205.3259,263.9879,96.0902,-5.7701e-06,-1.62e-06,0.0,0 STARLINK-6050,1 56458U 23064L   24204.45320866 -.00000162  00000-0 -57701-5 0  9995,2 56458  69.9995 205.3259 0003318 263.9879  96.0902 14.98330806 66080,6950.19,96.107,574.361,569.749,0.0
56458.0,STARLINK-6050,PAYLOAD,2024-07-23 04:30:05,14.98331375,0.0003393,69.9995,203.4743,265.7202,94.357,5.9875e-05,6.21e-06,0.0,0 STARLINK-6050,1 56458U 23064L   24205.18756624  .00000621  00000-0  59875-4 0  9992,2 56458  69.9995 203.4743 0003393 265.7202  94.3570 14.98331375 66556,6950.189,96.107,574.412,569.695,0.0
56458.0,STARLINK-6050,PAYLOAD,2024-07-23 09:18:29,14.98332548,0.000339,69.9994,202.969,266.0059,94.0713,7.1778e-05,7.64e-06,0.0,0 STARLINK-6050,1 56458U 23064L   24205.38784505  .00000764  00000-0  71778-4 0  9997,2 56458  69.9994 202.9690 0003390 266.0059  94.0713 14.98332548 66224,6950.185,96.107,574.406,569.694,0.0
56458.0,STARLINK-6050,PAYLOAD,2024-07-24 04:32:07,14.98325936,0.0003305,69.9995,200.9493,265.319,94.7592,5.2794e-06,-3e-07,0.0,0 STARLINK-6050,1 56458U 23064L   24206.18897151 -.00000030  00000-0  52794-5 0  9993,2 56458  69.9995 200.9493 0003305 265.3190  94.7592 14.98325936 66706,6950.205,96.107,574.368,569.773,0.0
56458.0,STARLINK-6050,PAYLOAD,2024-07-24 09:20:31,14.98325046,0.0003322,69.9995,200.4443,265.5356,94.5423,-6.8373e-06,-1.75e-06,0.0,0 STARLINK-6050,1 56458U 23064L   24206.38925295 -.00000175  00000-0 -68373-5 0  9997,2 56458  69.9995 200.4443 0003322 265.5356  94.5423 14.98325046 66377,6950.208,96.107,574.382,569.764,0.0
56458.0,STARLINK-6050,PAYLOAD,2024-07-25 04:34:07,14.98331802,0.0003388,69.9992,198.4243,266.1657,93.9115,1.1033e-05,3.9e-07,0.0,0 STARLINK-6050,1 56458U 23064L   24207.19036861  .00000039  00000-0  11033-4 0  9996,2 56458  69.9992 198.4243 0003388 266.1657  93.9115 14.98331802 66852,6950.187,96.107,574.407,569.698,0.0
56458.0,STARLINK-6050,PAYLOAD,2024-07-25 06:10:15,14.98331731,0.0003393,69.9993,198.2562,266.5434,93.5337,1.0283e-05,3e-07,0.0,0 STARLINK-6050,1 56458U 23064L   24207.25712868  .00000030  00000-0  10283-4 0  9998,2 56458  69.9993 198.2562 0003393 266.5434  93.5337 14.98331731 66503,6950.188,96.107,574.411,569.694,0.0
56458.0,STARLINK-6050,PAYLOAD,2024-07-25 09:22:31,14.98332765,0.0003378,69.9993,197.9196,266.4736,93.6037,2.311e-05,1.83e-06,0.0,0 STARLINK-6050,1 56458U 23064L   24207.39064753  .00000183  00000-0  23110-4 0  9998,2 56458  69.9993 197.9196 0003378 266.4736  93.6037 14.98332765 66527,6950.184,96.107,574.397,569.702,0.0
56458.0,STARLINK-6050,PAYLOAD,2024-07-26 04:36:08,14.98331854,0.0003446,69.9992,195.9001,267.9949,92.0815,9.3546e-05,1.023e-05,0.0,0 STARLINK-6050,1 56458U 23064L   24208.19176512  .00001023  00000-0  93546-4 0  9998,2 56458  69.9992 195.9001 0003446 267.9949  92.0815 14.98331854 67006,6950.187,96.107,574.447,569.657,0.0
56458.0,STARLINK-6050,PAYLOAD,2024-07-26 09:24:32,14.98334945,0.000341,69.9993,195.3948,268.4596,91.6172,0.00012671,1.419e-05,0.0,0 STARLINK-6050,1 56458U 23064L   24208.39204190  .00001419  00000-0  12671-3 0  9992,2 56458  69.9993 195.3948 0003410 268.4596  91.6172 14.98334945 66673,6950.178,96.107,574.413,569.673,0.0
56458.0,STARLINK-6050,PAYLOAD,2024-07-26 22:13:37,14.98332741,0.0003269,69.9997,194.048,268.4773,91.6012,3.1614e-05,2.84e-06,0.0,0 STARLINK-6050,1 56458U 23064L   24208.92612483  .00000284  00000-0  31614-4 0  9997,2 56458  69.9997 194.0480 0003269 268.4773  91.6012 14.98332741 66757,6950.184,96.107,574.321,569.777,0.0
56458.0,STARLINK-6050,PAYLOAD,2024-07-27 04:38:09,14.98331454,0.0003289,69.9996,193.3747,268.1998,91.8785,1.2916e-05,6.1e-07,0.0,0 STARLINK-6050,1 56458U 23064L   24209.19316561  .00000061  00000-0  12916-4 0  9992,2 56458  69.9996 193.3747 0003289 268.1998  91.8785 14.98331454 67156,6950.188,96.107,574.339,569.767,0.0
56458.0,STARLINK-6050,PAYLOAD,2024-07-27 06:14:17,14.98331233,0.000329,69.9996,193.2064,268.1763,91.9019,9.9386e-06,2.6e-07,0.0,0 STARLINK-6050,1 56458U 23064L   24209.25992575  .00000026  00000-0  99386-5 0  9992,2 56458  69.9996 193.2064 0003290 268.1763  91.9019 14.98331233 66806,6950.189,96.107,574.341,569.767,0.0
56458.0,STARLINK-6050,PAYLOAD,2024-07-27 09:26:33,14.98332073,0.0003281,69.9997,192.8698,268.2245,91.8538,1.8778e-05,1.31e-06,0.0,0 STARLINK-6050,1 56458U 23064L   24209.39344485  .00000131  00000-0  18778-4 0  9990,2 56458  69.9997 192.8698 0003281 268.2245  91.8538 14.98332073 66821,6950.186,96.107,574.332,569.771,0.0
56458.0,STARLINK-6050,PAYLOAD,2024-07-28 04:40:10,14.98329916,0.0003248,69.9997,190.8501,267.6117,92.467,-6.714e-05,-8.94e-06,0.0,0 STARLINK-6050,1 56458U 23064L   24210.19456812 -.00000894  00000-0 -67140-4 0  9993,2 56458  69.9997 190.8501 0003248 267.6117  92.4670 14.98329916 67306,6950.193,96.107,574.316,569.801,0.0
56458.0,STARLINK-6050,PAYLOAD,2024-07-28 09:28:34,14.98330089,0.0003176,69.9999,190.3453,267.699,92.3806,-4.5282e-05,-6.33e-06,0.0,0 STARLINK-6050,1 56458U 23064L   24210.39484750 -.00000633  00000-0 -45282-4 0  9991,2 56458  69.9999 190.3453 0003176 267.6990  92.3806 14.98330089 66973,6950.193,96.107,574.265,569.85,0.0
56458.0,STARLINK-6050,PAYLOAD,2024-07-29 04:42:11,14.98327442,0.0003152,69.9999,188.3254,266.844,93.2359,1.4066e-05,7.5e-07,0.0,0 STARLINK-6050,1 56458U 23064L   24211.19596806  .00000075  00000-0  14066-4 0  9990,2 56458  69.9999 188.3254 0003152 266.8440  93.2359 14.98327442 67450,6950.201,96.107,574.257,569.875,0.0
56458.0,STARLINK-6050,PAYLOAD,2024-07-29 09:30:35,14.98328806,0.000313,69.9999,187.8205,267.4329,92.6471,3.0152e-05,2.67e-06,0.0,0 STARLINK-6050,1 56458U 23064L   24211.39624708  .00000267  00000-0  30152-4 0  9992,2 56458  69.9999 187.8205 0003130 267.4329  92.6471 14.98328806 67126,6950.197,96.107,574.237,569.886,0.0
56458.0,STARLINK-6050,PAYLOAD,2024-07-29 15:55:08,14.98328994,0.0003246,69.9997,187.1472,269.699,90.3797,1.6467e-05,1.03e-06,0.0,0 STARLINK-6050,1 56458U 23064L   24211.66328742  .00000103  00000-0  16467-4 0  9993,2 56458  69.9997 187.1472 0003246 269.6990  90.3797 14.98328994 67167,6950.196,96.107,574.317,569.805,0.0
56458.0,STARLINK-6050,PAYLOAD,2024-07-30 04:44:12,14.983279,0.0003279,69.9995,185.8005,269.3576,90.7207,3.7077e-05,3.49e-06,0.0,0 STARLINK-6050,1 56458U 23064L   24212.19736851  .00000349  00000-0  37077-4 0  9998,2 56458  69.9995 185.8005 0003279 269.3576  90.7207 14.98327900 67600,6950.199,96.107,574.343,569.785,0.0
56458.0,STARLINK-6050,PAYLOAD,2024-07-30 07:56:28,14.98330713,0.0003237,69.9997,185.4642,269.8411,90.2377,6.8203e-05,7.21e-06,0.0,0 STARLINK-6050,1 56458U 23064L   24212.33088608  .00000721  00000-0  68203-4 0  9993,2 56458  69.9997 185.4642 0003237 269.8411  90.2377 14.98330713 67263,6950.191,96.107,574.305,569.806,0.0
